[
  "FORMOSAT-2 (ROCSAT 2)   \r\n1 28254U 04018A   26175.16658865 -.00000212  00000+0 -11285-3 0  9996\r\n2 28254  98.8460 142.4357 0001171 342.6059  28.4956 14.01259845129738\r\n",
  "PACE                    \r\n1 40022U 14033N   26175.28225577  .00004540  00000+0  27698-3 0  9995\r\n2 40022  98.1244 180.5876 0006221 178.6533 181.4713 15.10881445654105\r\n",
  "FORMOSAT-5              \r\n1 42920U 17049A   26175.22508184  .00000100  00000+0  36358-4 0  9998\r\n2 42920  98.2252 250.3785 0012521  64.8634 295.3859 14.50900948467692\r\n",
  "FORMOSAT 7-3            \r\n1 44343U 19036E   26175.18911363  .00003522  00000+0  19129-3 0  9996\r\n2 44343  23.9977 130.3456 0000721  26.8070 333.2471 15.09837331384303\r\n",
  "FORMOSAT 7-1            \r\n1 44349U 19036L   26174.78130427  .00002163  00000+0  15970-3 0  9991\r\n2 44349  23.9990 347.9379 0000438 251.1336 108.9117 14.96529519385640\r\n",
  "FORMOSAT 7-4            \r\n1 44350U 19036M   26174.93716651  .00002265  00000+0  16852-3 0  9992\r\n2 44350  23.9988  48.9919 0000880 270.8628  89.1772 14.96522163385083\r\n",
  "FORMOSAT 7-2            \r\n1 44351U 19036N   26175.09286106  .00002164  00000+0  15988-3 0  9995\r\n2 44351  23.9979 102.2566 0000358 258.4450 101.6011 14.96522171384625\r\n",
  "FORMOSAT 7-6            \r\n1 44353U 19036Q   26174.95920841  .00002149  00000+0  15851-3 0  9994\r\n2 44353  23.9979 283.9762 0001111 159.5941 200.4605 14.96536047382831\r\n",
  "FORMOSAT 7-5            \r\n1 44358U 19036V   26174.80308973  .00001836  00000+0  13164-3 0  9996\r\n2 44358  23.9971 223.7781 0000120 163.1840 196.8664 14.96538122383345\r\n",
  "FORMOSAT-7R (TRITON)    \r\n1 58017U 23155B   26175.21821384  .00001162  00000+0  12287-3 0  9999\r\n2 58017  97.8355 256.5625 0002532  79.5767 280.5737 14.91134877147272\r\n",
  "NIGHTJAR                \r\n1 60535U 24149BV  26175.20106103  .00002370  00000+0  20023-3 0  9994\r\n2 60535  97.6831 251.8100 0000799 101.9367 258.1946 14.99045098143927\r\n",
  "IRIS-F3                 \r\n1 62619U 25009L   26175.13222550  .00004928  00000+0  18812-3 0  9996\r\n2 62619  97.4045 255.9188 0004903 305.1990  54.8790 15.27103576 79888\r\n",
  "IRIS-F2                 \r\n1 62684U 25009CD  26175.21345626  .00012460  00000+0  47503-3 0  9996\r\n2 62684  97.3891 254.9196 0004203 336.6390  23.4657 15.26825374137539\r\n",
  "FORMOSAT-8A             \r\n1 66666U 25276A   26175.20655660  .00001278  00000+0  10559-3 0  9993\r\n2 66666  97.6548 249.3475 0003403 220.3949 139.7022 15.00690338 31119\r\n",
  "LILIUM-2                \r\n1 66679U 25276P   26175.16105559  .00002594  00000+0  13085-3 0  9998\r\n2 66679  97.4152 248.0650 0005641 358.9381   1.1840 15.18000398 31454\r\n",
  "FLOCK 4H-5              \r\n1 66708U 25276AU  26175.14896273  .00005077  00000+0  23433-3 0  9996\r\n2 66708  97.4178 248.7444 0000852  83.8003 276.3330 15.20665891 31499\r\n",
  "BLACK KITE-1            \r\n1 66741U 25276CD  26175.15333107  .00007381  00000+0  33906-3 0  9992\r\n2 66741  97.4244 248.7742 0004562 339.6410  20.4643 15.20667408 28786\r\n",
  "T.MICROSAT-1            \r\n1 66766U 25276DE  26175.18202244  .00004837  00000+0  22204-3 0  9991\r\n2 66766  97.4161 248.8002 0002031 118.0197 242.1244 15.20876923 31509\r\n",
  "LILIUM-3                \r\n1 66770U 25276DJ  26175.20496643  .00001892  00000+0  92258-4 0  9992\r\n2 66770  97.4245 248.8478 0001395 173.7042 186.4210 15.19534157 31492\r\n",
  "T.MICROSAT-2            \r\n1 68433U 26067T   26175.11659113  .00004497  00000+0  22792-3 0  9991\r\n2 68433  97.4568 133.3838 0007176  50.8244 309.3626 15.17450917 12987\r\n",
  "PARUS-6U1               \r\n1 68456U 26067AS  26175.11191134  .00004975  00000+0  25086-3 0  9990\r\n2 68456  97.4549 133.3687 0007072  53.4995 306.6889 15.17578800 12983\r\n",
  "BLACK KITE-2            \r\n1 68474U 26067BL  26175.11956313  .00001852  00000+0  18537-3 0  9992\r\n2 68474  97.7552 133.3054 0001450 167.7984 192.3270 14.92609021 12761\r\n",
  "PEARL-1B                \r\n1 68980U 26100A   26175.09240361  .00001498  00000+0  15861-3 0  9991\r\n2 68980  97.7361  72.3244 0008634 118.0474 242.1618 14.90586123  7712\r\n",
  "PEARL-1A                \r\n1 68990U 26100L   26174.47374741  .00001462  00000+0  15343-3 0  9999\r\n2 68990  97.7307  71.7247 0006303 131.2480 228.9282 14.90992296  7636\r\n"
]